LEMUR-1                 
1 40044U 14033AL  26094.91957789  .00002987  00000+0  35016-3 0  9992
2 40044  97.7771 246.4084 0047561 319.7371  40.0325 14.84940563634599
LEMUR-2-GREENBERG       
1 42837U 17042N   26094.45230218  .00029827  00000+0  10563-2 0  9998
2 42837  97.3794 275.5541 0008084 264.1100  95.9218 15.29047499477112
LEMUR-2-ANDIS           
1 42838U 17042P   26094.43849223  .00038460  00000+0  12451-2 0  9990
2 42838  97.3671 275.5014 0008351 265.9553  94.0734 15.31900072477155
LEMUR-2-MONSON          
1 42839U 17042Q   26094.43818379  .00027550  00000+0  10716-2 0  9999
2 42839  97.4052 275.6129 0005819 249.3714 110.6900 15.25977356476914
LEMUR-2-FURIAUS         
1 42840U 17042R   26094.91272373  .00027106  00000+0  10022-2 0  9999
2 42840  97.3756 274.1407 0006832 323.2837  36.7933 15.27657366477017
LEMUR-2-PETERG          
1 42841U 17042S   26094.44209965  .00038167  00000+0  12705-2 0  9994
2 42841  97.3990 279.5216 0003368 230.9994 129.0948 15.31031539477143
LEMUR-2-DEMBITZ         
1 42842U 17042T   26094.48264768  .00030258  00000+0  11051-2 0  9997
2 42842  97.3815 276.6631 0005821 277.4868  82.5710 15.28046211477083
LEMUR-2-ZACHARY         
1 42845U 17042W   26094.52490060  .00049442  00000+0  10649-2 0  9998
2 42845  97.3640 284.9116 0003200 272.9828  87.1054 15.44448842477814
LEMUR-2-JIN-LUEN        
1 43182U 18014C   26094.79902322  .01961668  32724-2  23120-2 0  9994
2 43182  97.5379  27.8959 0010752 155.4600 204.7196 16.09333951449619
LEMUR-2-KADI            
1 43184U 18014E   26094.59665750  .00161028  00000+0  12952-2 0  9996
2 43184  97.4626  20.8784 0006303 123.4305 236.7561 15.70434125449442
LEMUR-2-AMANDA-SVANTE   
1 48269U 21034B   26094.68780652  .00042436  00000+0  14474-2 0  9992
2 48269  97.5793 171.2723 0004193 142.3139 217.8396 15.30215120269805
LEMUR-2-SPECIAL-K       
1 48273U 21034F   26094.77692059  .00111092  00000+0  19680-2 0  9999
2 48273  97.5682 177.2878 0002098 188.5436 171.5780 15.49869261270275
LEMUR-2-EMBRIONOVIS     
1 56970U 23084AQ  26094.35397944  .00027278  00000+0  78776-3 0  9992
2 56970  97.6184 235.8777 0008661 210.8767 149.1968 15.35603890156342
LEMUR-2-MANO            
1 57390U 23100E   26094.66015286  .00242678  00000+0  19474-2 0  9990
2 57390  99.4459 125.9874 0008382 187.8293 172.2833 15.70215291150545
LEMUR-2-DEVERILL-M-T    
1 57391U 23100F   26094.52094147  .00036929  00000+0  10409-2 0  9998
2 57391  99.4549 112.2318 0005488 288.0988  71.9651 15.36333113149926
LEMUR-2-BASS            
1 58259U 23174D   26094.68162025  .00022698  00000+0  55443-3 0  9997
2 58259  97.3855 178.5022 0008283  81.3166 278.9019 15.40811238134039
