[{"OBJECT_NAME":"LEMUR-1","OBJECT_ID":"2014-033AL","EPOCH":"2026-04-04T22:04:11.529696","MEAN_MOTION":14.84940563,"ECCENTRICITY":0.00475617,"INCLINATION":97.7771,"RA_OF_ASC_NODE":246.4084,"ARG_OF_PERICENTER":319.7371,"MEAN_ANOMALY":40.0325,"EPHEMERIS_TYPE":0,"CLASSIFICATION_TYPE":"U","NORAD_CAT_ID":40044,"ELEMENT_SET_NO":999,"REV_AT_EPOCH":63459,"BSTAR":0.00035016126,"MEAN_MOTION_DOT":2.987e-5,"MEAN_MOTION_DDOT":0},{"OBJECT_NAME":"LEMUR-2-GREENBERG","OBJECT_ID":"2017-042N","EPOCH":"2026-04-04T10:51:18.908352","MEAN_MOTION":15.29047499,"ECCENTRICITY":0.00080847,"INCLINATION":97.3794,"RA_OF_ASC_NODE":275.5541,"ARG_OF_PERICENTER":264.11,"MEAN_ANOMALY":95.9218,"EPHEMERIS_TYPE":0,"CLASSIFICATION_TYPE":"U","NORAD_CAT_ID":42837,"ELEMENT_SET_NO":999,"REV_AT_EPOCH":47711,"BSTAR":0.001056253,"MEAN_MOTION_DOT":0.00029827,"MEAN_MOTION_DDOT":0},{"OBJECT_NAME":"LEMUR-2-ANDIS","OBJECT_ID":"2017-042P","EPOCH":"2026-04-04T10:31:25.728672","MEAN_MOTION":15.31900072,"ECCENTRICITY":0.00083512,"INCLINATION":97.3671,"RA_OF_ASC_NODE":275.5014,"ARG_OF_PERICENTER":265.9553,"MEAN_ANOMALY":94.0734,"EPHEMERIS_TYPE":0,"CLASSIFICATION_TYPE":"U","NORAD_CAT_ID":42838,"ELEMENT_SET_NO":999,"REV_AT_EPOCH":47715,"BSTAR":0.0012450926,"MEAN_MOTION_DOT":0.0003846,"MEAN_MOTION_DDOT":0},{"OBJECT_NAME":"LEMUR-2-MONSON","OBJECT_ID":"2017-042Q","EPOCH":"2026-04-04T10:30:59.079456","MEAN_MOTION":15.25977356,"ECCENTRICITY":0.00058199,"INCLINATION":97.4052,"RA_OF_ASC_NODE":275.6129,"ARG_OF_PERICENTER":249.3714,"MEAN_ANOMALY":110.69,"EPHEMERIS_TYPE":0,"CLASSIFICATION_TYPE":"U","NORAD_CAT_ID":42839,"ELEMENT_SET_NO":999,"REV_AT_EPOCH":47691,"BSTAR":0.0010716491,"MEAN_MOTION_DOT":0.0002755,"MEAN_MOTION_DDOT":0},{"OBJECT_NAME":"LEMUR-2-FURIAUS","OBJECT_ID":"2017-042R","EPOCH":"2026-04-04T21:54:19.330272","MEAN_MOTION":15.27657366,"ECCENTRICITY":0.00068324,"INCLINATION":97.3756,"RA_OF_ASC_NODE":274.1407,"ARG_OF_PERICENTER":323.2837,"MEAN_ANOMALY":36.7933,"EPHEMERIS_TYPE":0,"CLASSIFICATION_TYPE":"U","NORAD_CAT_ID":42840,"ELEMENT_SET_NO":999,"REV_AT_EPOCH":47701,"BSTAR":0.0010022138,"MEAN_MOTION_DOT":0.00027106,"MEAN_MOTION_DDOT":0},{"OBJECT_NAME":"LEMUR-2-PETERG","OBJECT_ID":"2017-042S","EPOCH":"2026-04-04T10:36:37.409760","MEAN_MOTION":15.31031539,"ECCENTRICITY":0.00033684,"INCLINATION":97.399,"RA_OF_ASC_NODE":279.5216,"ARG_OF_PERICENTER":230.9994,"MEAN_ANOMALY":129.0948,"EPHEMERIS_TYPE":0,"CLASSIFICATION_TYPE":"U","NORAD_CAT_ID":42841,"ELEMENT_SET_NO":999,"REV_AT_EPOCH":47714,"BSTAR":0.0012704904,"MEAN_MOTION_DOT":0.00038167,"MEAN_MOTION_DDOT":0},{"OBJECT_NAME":"LEMUR-2-DEMBITZ","OBJECT_ID":"2017-042T","EPOCH":"2026-04-04T11:35:00.759552","MEAN_MOTION":15.28046211,"ECCENTRICITY":0.00058213,"INCLINATION":97.3815,"RA_OF_ASC_NODE":276.6631,"ARG_OF_PERICENTER":277.4868,"MEAN_ANOMALY":82.571,"EPHEMERIS_TYPE":0,"CLASSIFICATION_TYPE":"U","NORAD_CAT_ID":42842,"ELEMENT_SET_NO":999,"REV_AT_EPOCH":47708,"BSTAR":0.0011050877,"MEAN_MOTION_DOT":0.00030258,"MEAN_MOTION_DDOT":0},{"OBJECT_NAME":"LEMUR-2-ZACHARY","OBJECT_ID":"2017-042W","EPOCH":"2026-04-04T12:35:51.411840","MEAN_MOTION":15.44448842,"ECCENTRICITY":0.00032001,"INCLINATION":97.364,"RA_OF_ASC_NODE":284.9116,"ARG_OF_PERICENTER":272.9828,"MEAN_ANOMALY":87.1054,"EPHEMERIS_TYPE":0,"CLASSIFICATION_TYPE":"U","NORAD_CAT_ID":42845,"ELEMENT_SET_NO":999,"REV_AT_EPOCH":47781,"BSTAR":0.0010649237,"MEAN_MOTION_DOT":0.00049442,"MEAN_MOTION_DDOT":0},{"OBJECT_NAME":"LEMUR-2-JIN-LUEN","OBJECT_ID":"2018-014C","EPOCH":"2026-04-04T19:10:35.606208","MEAN_MOTION":16.09333951,"ECCENTRICITY":0.0010752,"INCLINATION":97.5379,"RA_OF_ASC_NODE":27.8959,"ARG_OF_PERICENTER":155.46,"MEAN_ANOMALY":204.7196,"EPHEMERIS_TYPE":0,"CLASSIFICATION_TYPE":"U","NORAD_CAT_ID":43182,"ELEMENT_SET_NO":999,"REV_AT_EPOCH":44961,"BSTAR":0.0023120069,"MEAN_MOTION_DOT":0.01961668,"MEAN_MOTION_DDOT":0.0032724088},{"OBJECT_NAME":"LEMUR-2-KADI","OBJECT_ID":"2018-014E","EPOCH":"2026-04-04T14:19:11.208000","MEAN_MOTION":15.70434125,"ECCENTRICITY":0.0006303,"INCLINATION":97.4626,"RA_OF_ASC_NODE":20.8784,"ARG_OF_PERICENTER":123.4305,"MEAN_ANOMALY":236.7561,"EPHEMERIS_TYPE":0,"CLASSIFICATION_TYPE":"U","NORAD_CAT_ID":43184,"ELEMENT_SET_NO":999,"REV_AT_EPOCH":44944,"BSTAR":0.0012952,"MEAN_MOTION_DOT":0.00161028,"MEAN_MOTION_DDOT":0},{"OBJECT_NAME":"LEMUR-2-AMANDA-SVANTE","OBJECT_ID":"2021-034B","EPOCH":"2026-04-04T16:30:26.483328","MEAN_MOTION":15.3021512,"ECCENTRICITY":0.00041936,"INCLINATION":97.5793,"RA_OF_ASC_NODE":171.2723,"ARG_OF_PERICENTER":142.3139,"MEAN_ANOMALY":217.8396,"EPHEMERIS_TYPE":0,"CLASSIFICATION_TYPE":"U","NORAD_CAT_ID":48269,"ELEMENT_SET_NO":999,"REV_AT_EPOCH":26980,"BSTAR":0.0014474293,"MEAN_MOTION_DOT":0.00042436,"MEAN_MOTION_DDOT":0},{"OBJECT_NAME":"LEMUR-2-SPECIAL-K","OBJECT_ID":"2021-034F","EPOCH":"2026-04-04T18:38:45.938976","MEAN_MOTION":15.49869261,"ECCENTRICITY":0.0002098,"INCLINATION":97.5682,"RA_OF_ASC_NODE":177.2878,"ARG_OF_PERICENTER":188.5436,"MEAN_ANOMALY":171.578,"EPHEMERIS_TYPE":0,"CLASSIFICATION_TYPE":"U","NORAD_CAT_ID":48273,"ELEMENT_SET_NO":999,"REV_AT_EPOCH":27027,"BSTAR":0.001968,"MEAN_MOTION_DOT":0.00111092,"MEAN_MOTION_DDOT":0},{"OBJECT_NAME":"LEMUR-2-EMBRIONOVIS","OBJECT_ID":"2023-084AQ","EPOCH":"2026-04-04T08:29:43.823616","MEAN_MOTION":15.3560389,"ECCENTRICITY":0.00086614,"INCLINATION":97.6184,"RA_OF_ASC_NODE":235.8777,"ARG_OF_PERICENTER":210.8767,"MEAN_ANOMALY":149.1968,"EPHEMERIS_TYPE":0,"CLASSIFICATION_TYPE":"U","NORAD_CAT_ID":56970,"ELEMENT_SET_NO":999,"REV_AT_EPOCH":15634,"BSTAR":0.00078776279,"MEAN_MOTION_DOT":0.00027278,"MEAN_MOTION_DDOT":0},{"OBJECT_NAME":"LEMUR-2-MANO","OBJECT_ID":"2023-100E","EPOCH":"2026-04-04T15:50:37.207104","MEAN_MOTION":15.70215291,"ECCENTRICITY":0.0008382,"INCLINATION":99.4459,"RA_OF_ASC_NODE":125.9874,"ARG_OF_PERICENTER":187.8293,"MEAN_ANOMALY":172.2833,"EPHEMERIS_TYPE":0,"CLASSIFICATION_TYPE":"U","NORAD_CAT_ID":57390,"ELEMENT_SET_NO":999,"REV_AT_EPOCH":15054,"BSTAR":0.0019474,"MEAN_MOTION_DOT":0.00242678,"MEAN_MOTION_DDOT":0},{"OBJECT_NAME":"LEMUR-2-DEVERILL-M-T","OBJECT_ID":"2023-100F","EPOCH":"2026-04-04T12:30:09.343008","MEAN_MOTION":15.36333113,"ECCENTRICITY":0.0005488,"INCLINATION":99.4549,"RA_OF_ASC_NODE":112.2318,"ARG_OF_PERICENTER":288.0988,"MEAN_ANOMALY":71.9651,"EPHEMERIS_TYPE":0,"CLASSIFICATION_TYPE":"U","NORAD_CAT_ID":57391,"ELEMENT_SET_NO":999,"REV_AT_EPOCH":14992,"BSTAR":0.0010409246,"MEAN_MOTION_DOT":0.00036929,"MEAN_MOTION_DDOT":0},{"OBJECT_NAME":"LEMUR-2-BASS","OBJECT_ID":"2023-174D","EPOCH":"2026-04-04T16:21:31.989600","MEAN_MOTION":15.40811238,"ECCENTRICITY":0.00082835,"INCLINATION":97.3855,"RA_OF_ASC_NODE":178.5022,"ARG_OF_PERICENTER":81.3166,"MEAN_ANOMALY":278.9019,"EPHEMERIS_TYPE":0,"CLASSIFICATION_TYPE":"U","NORAD_CAT_ID":58259,"ELEMENT_SET_NO":999,"REV_AT_EPOCH":13403,"BSTAR":0.00055443099,"MEAN_MOTION_DOT":0.00022698,"MEAN_MOTION_DDOT":0}]
